COSMOS 1892             
1 18421U 87088A   21016.55601898  .00000389  00000-0  17770-4 0  9995
2 18421  82.4991  62.6091 0016099  50.5055 309.7599 15.17423687816865
SL-14 R/B               
1 18749U 88001B   21016.46511542  .00000078  00000-0  66591-5 0  9991
2 18749  82.5151 158.0249 0017717 319.8595 100.9648 14.83242499763443
COSMOS 1933             
1 18958U 88020A   21016.45928216  .00000500  00000-0  34212-4 0  9997
2 18958  82.5299 279.8831 0012312 140.1652 220.0480 15.03837857767096
SL-3 R/B                
1 19046U 88032B   21016.60248027  .00000468  00000-0  38802-4 0  9993
2 19046  97.3902  34.0865 0036724 199.4035 160.5795 15.02824135768972
SL-16 R/B               
1 19120U 88039B   21016.53774848 -.00000032  00000-0  77742-5 0  9995
2 19120  71.0154  78.2687 0022901 334.7842  25.2163 14.19218497691883
COSMOS 1953             
1 19210U 88050A   21016.58966282  .00001035  00000-0  68657-4 0  9995
2 19210  82.5158 202.9169 0014218 107.8749 252.4030 15.06142266753740
SL-8 R/B                
1 19257U 88053B   21016.33742788 -.00000005  00000-0  72329-5 0  9994
2 19257  74.0502 329.5408 0021781 256.5511 216.7451 14.37499010706590
COSMOS 1975             
1 19573U 88093A   21016.45394128  .00000740  00000-0  49997-4 0  9992
2 19573  82.5203 157.8522 0014724 151.1176 209.0869 15.05041036735540
SL-14 R/B               
1 19574U 88093B   21016.46553007  .00000061  00000-0  44001-5 0  9995
2 19574  82.5323   0.8543 0022994 117.7079 359.2557 14.83353359722448
SL-16 R/B               
1 19650U 88102B   21016.57364797 -.00000013  00000-0  17788-4 0  9998
2 19650  71.0006 141.7616 0014983 340.9064  19.1495 14.15800954661047
INTERCOSMOS 24          
1 20261U 89080A   21016.55874520  .00000088  00000-0  25025-4 0  9996
2 20261  82.6025 242.3621 1202423 316.1275  35.0161 12.56165709430752
SL-14 R/B               
1 20262U 89080C   21016.50689452  .00000069  00000-0  12765-4 0  9996
2 20262  82.5948 297.4440 1237660 151.3155 216.2152 12.48954040425586
DELTA 2 R/B(1)          
1 20303U 89085B   21016.57021906  .00002509  00000-0  79545-4 0  9998
2 20303  35.6416 110.8322 0093245 272.5434  86.4622 15.28432769701218
DELTA 1 R/B             
1 20323U 89089B   21016.55476184  .00000049  00000-0  22127-4 0  9995
2 20323  97.1152 134.6657 0070205 280.7943  78.5356 14.48379330623711
ARIANE 40 R/B           
1 20443U 90005H   21016.41630067  .00000009  00000-0  17680-4 0  9999
2 20443  98.5501  83.5933 0011379  71.4583 288.7839 14.38112724622720
DELTA 2 R/B(1)          
1 20453U 90008B   21016.57983692  .00001590  00000-0  89008-4 0  9994
2 20453  35.6267  79.1713 0279315 284.5977  72.3921 14.86155019642918
COSMOS 2058             
1 20465U 90010A   21016.59134010  .00000204  00000-0  14905-4 0  9999
2 20465  82.4883  68.2467 0014974 197.0402 163.0320 14.98123052660230
SL-14 R/B               
1 20466U 90010B   21016.58295158  .00000069  00000-0  58313-5 0  9991
2 20466  82.5016 227.3084 0020527   1.6784 358.4494 14.81407543650285
SL-14 R/B               
1 20511U 90018B   21016.48976948  .00000068  00000-0  59090-5 0  9994
2 20511  82.5232 174.7368 0018505 135.8566 281.0666 14.80063041644620
HST                     
1 20580U 90037B   21016.33170597  .00000506  00000-0  19725-4 0  9998
2 20580  28.4712 351.5455 0002556 219.1525 256.5758 15.09535926488094
SL-16 R/B               
1 20625U 90046B   21016.48234222  .00000285  00000-0  17277-3 0  9993
2 20625  70.9991 281.0562 0016402 276.8339  83.0917 14.14660999582740
COSMOS 2084             
1 20663U 90055A   21016.56605371 -.00000033  00000-0  14981-4 0  9993
2 20663  62.7935 176.5966 0046789 339.8234  20.1008 14.92177256655154
SL-6 R/B(2)             
1 20666U 90055D   21016.58299689 -.00000034  00000-0  15148-4 0  9996
2 20666  62.7860  92.4436 0077213  16.7925 343.5698 14.92421805657102
SL-8 R/B                
1 20775U 90078B   21016.57897793  .00001272  00000-0  61498-4 0  9994
2 20775  82.9254  50.7819 0568839 254.0246  99.7597 14.35184977536307
SL-8 R/B                
1 21088U 91006B   21016.54414715  .00000013  00000-0 -25763-5 0  9999
2 21088  82.9435 126.8073 0021439 253.2575 117.1508 13.77146566505545
OKEAN-3                 
1 21397U 91039A   21016.57871336  .00000247  00000-0  21174-4 0  9996
2 21397  82.5232 334.0945 0017894 171.3461 188.8072 14.93025311584062
COSMOS 2151             
1 21422U 91042A   21016.57041299  .00000200  00000-0  17085-4 0  9991
2 21422  82.5000  80.0452 0012862 237.3648 122.6331 14.92203289582664
SL-14 R/B               
1 21423U 91042B   21016.52778187  .00000066  00000-0  57401-5 0  9997
2 21423  82.4939 177.7611 0016140 282.2841  77.6565 14.79812754575177
ERS-1                   
1 21574U 91050A   21016.50951248  .00000023  00000-0  22450-4 0  9990
2 21574  98.6277 336.2460 0033355  15.3992 344.8202 14.37777532545735
ARIANE 40 R/B           
1 21610U 91050F   21016.44065844  .00000018  00000-0  19204-4 0  9999
2 21610  98.4426  89.2967 0002900   1.0270   9.4248 14.40930788548375
INTERCOSMOS 25          
1 21819U 91086A   21016.43839460 -.00000849  00000-0 -17718-3 0  9992
2 21819  82.5834 358.7325 1516515 178.0856 182.7038 12.05166286269941
SL-8 R/B                
1 21876U 92008B   21016.55671442 -.00000016  00000-0 -31993-4 0  9995
2 21876  82.9253 224.0194 0034456 340.8764  73.5131 13.75668877451177
SL-8 R/B                
1 21938U 92020B   21016.54650096  .00000050  00000-0  35820-4 0  9998
2 21938  82.9308 108.3765 0030281 137.4408 233.3646 13.75293301442962
COSMOS 2219             
1 22219U 92076A   21016.34666593 -.00000037  00000-0  51662-5 0  9998
2 22219  71.0625 342.9763 0018604 197.6954 162.3523 14.13660137452907
SL-16 R/B               
1 22220U 92076B   21016.56031648  .00000034  00000-0  41150-4 0  9997
2 22220  70.9991 182.9780 0010600  74.9914 346.1518 14.16467072455854
COSMOS 2221             
1 22236U 92080A   21016.39841367  .00000181  00000-0  17050-4 0  9992
2 22236  82.5076 262.4250 0016188 340.0289  20.0293 14.88000393500946
SL-16 R/B               
1 22285U 92093B   21016.36076388  .00000100  00000-0  75978-4 0  9994
2 22285  71.0230 345.8531 0006584 283.7154  76.3235 14.15055492447441
COSMOS 2228             
1 22286U 92094A   21016.58837208  .00000178  00000-0  16468-4 0  9990
2 22286  82.5187 218.7405 0022573  93.0190 267.3612 14.88219471496147
SL-16 R/B               
1 22566U 93016B   21016.61151187  .00000277  00000-0  16788-3 0  9999
2 22566  71.0056 198.3093 0012158 295.6410  64.3456 14.14969219436488
COSMOS 2242             
1 22626U 93024A   21016.38525571  .00000191  00000-0  17914-4 0  9999
2 22626  82.5208 247.1434 0020383  93.5724 266.7825 14.88071385500529
SL-16 R/B               
1 22803U 93059B   21016.40644367 -.00000236  00000-0 -93437-4 0  9998
2 22803  70.9909  10.4835 0017952 199.6028 160.4407 14.16831021413468
ARIANE 40 R/B           
1 22830U 93061H   21016.56395869 -.00000019  00000-0  97807-5 0  9992
2 22830  98.7371  73.4178 0011748  60.9071 299.3286 14.31464455425317
COSMOS 2278             
1 23087U 94023A   21016.56537519 -.00000199  00000-0 -80140-4 0  9997
2 23087  71.0550 142.2116 0008821 358.4198   1.6895 14.13824041379314
SL-16 R/B               
1 23088U 94023B   21016.51603039 -.00000237  00000-0 -98450-4 0  9990
2 23088  70.9998  53.9181 0005848 270.2167  89.8285 14.14680828380443
SL-16 R/B               
1 23343U 94074B   21016.60598328  .00000035  00000-0  12243-4 0  9994
2 23343  97.9704  73.3680 0006958 173.2041 307.8185 14.76858112409879
SL-16 R/B               
1 23405U 94077B   21016.30693460  .00000042  00000-0  46162-4 0  9991
2 23405  70.9836 342.9128 0002106 194.6460 165.4602 14.15231440350464
ERS-2                   
1 23560U 95021A   21016.51178619  .00000778  00000-0  36261-4 0  9995
2 23560  98.5531 205.4750 0003854 150.1604 209.9850 15.23602318374557
ARIANE 40+ R/B          
1 23561U 95021B   21016.59956369  .00000038  00000-0  27752-4 0  9994
2 23561  98.6978  64.7566 0006577 350.7637 162.1964 14.38004519349208
SL-16 R/B               
1 23705U 95058B   21016.56305850  .00000111  00000-0  81573-4 0  9997
2 23705  71.0222 161.8186 0010277 104.7808 255.4454 14.15148481302123
SL-16 R/B               
1 24298U 96051B   21016.60492431 -.00000228  00000-0 -97161-4 0  9997
2 24298  70.8356 181.1723 0013924  29.1562 331.0333 14.12476042256452
ORBVIEW 2 (SEASTAR)     
1 24883U 97037A   21016.55700045  .00000033  00000-0  27901-4 0  9996
2 24883  98.6271 135.0010 0002412 170.8218 189.3011 14.33591315239244
SL-16 R/B               
1 25400U 98043G   21016.53788533 -.00000001  00000-0  18013-4 0  9996
2 25400  98.6284 314.7199 0011005  75.6180 284.6221 14.25468400171376
SL-16 R/B               
1 25407U 98045B   21016.56551741 -.00000259  00000-0 -10744-3 0  9995
2 25407  71.0107 169.7188 0007611 349.7753  10.3214 14.15834730161240
ISS (ZARYA)             
1 25544U 98067A   21016.69167509  .00001035  00000-0  26652-4 0  9997
2 25544  51.6457  12.0421 0000296 247.5109 263.0555 15.49297568265112
SL-8 R/B                
1 25723U 99022C   21016.16265213  .00047366  00000-0  16577-3 0  9992
2 25723  48.4074 266.7753 0002927 234.4684 125.6002 15.88667553211289
CZ-4B R/B               
1 25732U 99025C   21016.55713998 -.00000037  00000-0  42121-5 0  9997
2 25732  98.9224  52.5199 0036721 324.3081 158.1676 14.17687085122013
OKEAN-O                 
1 25860U 99039A   21016.54911173  .00000037  00000-0  12915-4 0  9994
2 25860  98.1990  45.0815 0000733  93.1362 266.9931 14.76705920156963
SL-16 R/B               
1 25861U 99039B   21016.57782251  .00000009  00000-0  87283-5 0  9991
2 25861  98.2091  28.9575 0015382 188.8232 281.4589 14.78615345159118
DELTA 2 R/B             
1 25876U 99041E   21016.49052723 -.00000106  00000-0  21204-4 0  9994
2 25876  51.7657 189.2931 0530619 245.4211 109.0551 14.04497137 98566
